1 60012U 24110A   25201.90130888  .00005927  00000-0  34098-3 0  9994
2 60012  97.5829 291.1803 0014868 138.2536 221.9832 15.12746524 61843
1 60012U 24110A   25202.23204254  .00005616  00000-0  32324-3 0  9995
2 60012  97.5829 291.5089 0014895 137.2336 223.0057 15.12750101 61893
1 60012U 24110A   25202.43048217  .00005744  00000-0  33049-3 0  9999
2 60012  97.5829 291.7061 0014895 136.6387 223.6018 15.12752746 61928
1 60012U 24110A   25202.49662868  .00005740  00000-0  33029-3 0  9993
2 60012  97.5829 291.7718 0014897 136.4530 223.7879 15.12753561 61930
1 60012U 24110A   25202.82736052  .00005838  00000-0  33582-3 0  9999
2 60012  97.5829 292.1005 0014899 135.4658 224.7773 15.12758077 61982
1 60012U 24110A   25202.89350684  .00005766  00000-0  33171-3 0  9993
2 60012  97.5830 292.1662 0014903 135.2683 224.9752 15.12758706 61994
1 60012U 24110A   25203.22423785  .00006039  00000-0  34718-3 0  9996
2 60012  97.5830 292.4949 0014915 134.2740 225.9717 15.12763061 62040
1 60012U 24110A   25203.48882206  .00006450  00000-0  37047-3 0  9996
2 60012  97.5830 292.7579 0014905 133.4445 226.8029 15.12766878 62083
1 60012U 24110A   25203.55496799  .00006557  00000-0  37654-3 0  9994
2 60012  97.5830 292.8236 0014901 133.2536 226.9941 15.12767880 62098
1 60012U 24110A   25203.81955118  .00006824  00000-0  39167-3 0  9996
2 60012  97.5831 293.0866 0014898 132.4322 227.8171 15.12771994 62131
1 60012U 24110A   25204.21642445  .00008566  00000-0  49046-3 0  9999
2 60012  97.5830 293.4810 0014892 131.2935 228.9580 15.12779632 62193
1 60012U 24110A   25204.54715079  .00009198  00000-0  52628-3 0  9991
2 60012  97.5831 293.8096 0014890 130.2939 229.9596 15.12785607 62248
1 60012U 24110A   25204.61329584  .00009453  00000-0  54070-3 0  9998
2 60012  97.5832 293.8754 0014884 130.0794 230.1744 15.12787200 62251
1 60012U 24110A   25204.61329584  .00009453  00000-0  54070-3 0  9998
2 60012  97.5832 293.8754 0014884 130.0794 230.1744 15.12787200 62251
1 60012U 24110A   25205.80389742  .00009767  00000-0  55818-3 0  9991
2 60012  97.5833 295.0588 0014874 126.4017 233.8588 15.12810406 62438
1 60012U 24110A   25205.93618521  .00009522  00000-0  54426-3 0  9998
2 60012  97.5833 295.1903 0014875 126.0239 234.2373 15.12812675 62452
1 60012U 24110A   25206.20076034  .00008598  00000-0  49177-3 0  9995
2 60012  97.5833 295.4533 0014875 125.2430 235.0195 15.12816699 62493
1 60012U 24110A   25206.46533475  .00008404  00000-0  48074-3 0  9991
2 60012  97.5833 295.7163 0014890 124.4263 235.8378 15.12821263 62536
1 60012U 24110A   25206.46533475  .00008404  00000-0  48074-3 0  9991
2 60012  97.5833 295.7163 0014890 124.4263 235.8378 15.12821263 62536
1 60012U 24110A   25206.72990804  .00008462  00000-0  48392-3 0  9990
2 60012  97.5834 295.9794 0014893 123.5789 236.6866 15.12826797 62577
1 60012U 24110A   25206.92833772  .00008313  00000-0  47548-3 0  9999
2 60012  97.5833 296.1766 0014921 122.8909 237.3760 15.12829907 62607
1 60012U 24110A   25207.19290971  .00008443  00000-0  48275-3 0  9999
2 60012  97.5832 296.4396 0014945 122.0355 238.2330 15.12835148 62642
1 60012U 24110A   25207.52362368  .00008410  00000-0  48078-3 0  9991
2 60012  97.5833 296.7683 0014976 120.9820 239.2885 15.12840837 62695
1 60012U 24110A   25207.85433607  .00009034  00000-0  51605-3 0  9995
2 60012  97.5832 297.0971 0015004 119.8883 240.3841 15.12848064 62748
1 60012U 24110A   25207.92047840  .00009117  00000-0  52070-3 0  9992
2 60012  97.5832 297.1629 0015006 119.6854 240.5873 15.12849253 62756
1 60012U 24110A   25208.18504726  .00008184  00000-0  46784-3 0  9990
2 60012  97.5831 297.4259 0015023 118.8602 241.4139 15.12852808 62797
1 60012U 24110A   25208.51575735  .00008396  00000-0  47973-3 0  9991
2 60012  97.5831 297.7547 0015051 117.7862 242.4897 15.12858755 62842
1 60012U 24110A   25208.58189923  .00008362  00000-0  47779-3 0  9995
2 60012  97.5831 297.8205 0015056 117.5695 242.7067 15.12859901 62858
1 60012U 24110A   25208.84646606  .00008420  00000-0  48104-3 0  9998
2 60012  97.5830 298.0835 0015077 116.7446 243.5330 15.12864726 62894
1 60012U 24110A   25208.91260772  .00008365  00000-0  47790-3 0  9990
2 60012  97.5830 298.1492 0015084 116.5132 243.7648 15.12865644 62908
1 60012U 24110A   25209.24331510  .00007241  00000-0  41418-3 0  9999
2 60012  97.5828 298.4780 0015106 115.5083 244.7712 15.12869704 62956
1 60012U 24110A   25209.50788033  .00007236  00000-0  41385-3 0  9991
2 60012  97.5828 298.7410 0015117 114.6628 245.6178 15.12873742 62993
1 60012U 24110A   25209.57402153  .00007229  00000-0  41348-3 0  9995
2 60012  97.5828 298.8068 0015120 114.4397 245.8413 15.12874799 63008
1 60012U 24110A   25209.83858569  .00007533  00000-0  43062-3 0  9993
2 60012  97.5827 299.0698 0015127 113.6427 246.6393 15.12879499 63043
1 60012U 24110A   25210.23543070  .00008089  00000-0  46198-3 0  9997
2 60012  97.5825 299.4642 0015134 112.4288 247.8548 15.12886347 63106
1 60012U 24110A   25210.49999308  .00007977  00000-0  45559-3 0  9999
2 60012  97.5824 299.7273 0015135 111.6160 248.6685 15.12890257 63149
1 60012U 24110A   25210.56613358  .00007926  00000-0  45271-3 0  9990
2 60012  97.5824 299.7931 0015132 111.4085 248.8762 15.12891249 63152
1 60012U 24110A   25210.83069495  .00007800  00000-0  44554-3 0  9991
2 60012  97.5823 300.0560 0015116 110.6404 249.6449 15.12895362 63198
1 60012U 24110A   25210.89683523  .00007757  00000-0  44309-3 0  9990
2 60012  97.5822 300.1218 0015116 110.4412 249.8443 15.12896220 63207
1 60012U 24110A   25211.22753570  .00007848  00000-0  44818-3 0  9994
2 60012  97.5820 300.4505 0015097 109.4410 250.8453 15.12901756 63250
1 60012U 24110A   25211.49209516  .00008039  00000-0  45891-3 0  9994
2 60012  97.5820 300.7135 0015090 108.6526 251.6344 15.12906327 63295
1 60012U 24110A   25211.55823483  .00008244  00000-0  47050-3 0  9993
2 60012  97.5820 300.7792 0015081 108.4428 251.8444 15.12907845 63304
1 60012U 24110A   25211.88893262  .00008646  00000-0  49314-3 0  9992
2 60012  97.5818 301.1079 0015057 107.4409 252.8469 15.12914098 63356
1 60012U 24110A   25212.21962928  .00008494  00000-0  48451-3 0  9998
2 60012  97.5817 301.4365 0015026 106.4284 253.8600 15.12919496 63403
1 60012U 24110A   25212.55032448  .00009136  00000-0  52065-3 0  9990
2 60012  97.5817 301.7653 0015009 105.4410 254.8480 15.12926254 63459
1 60012U 24110A   25212.81487970  .00008809  00000-0  50212-3 0  9991
2 60012  97.5816 302.0282 0014989 104.6184 255.6710 15.12930700 63495
1 60012U 24110A   25212.88101839  .00008846  00000-0  50419-3 0  9995
2 60012  97.5816 302.0939 0014984 104.4187 255.8708 15.12931821 63506
1 60012U 24110A   25213.21171111  .00009060  00000-0  51623-3 0  9990
2 60012  97.5816 302.4226 0014957 103.3768 256.9131 15.12937994 63556
1 60012U 24110A   25213.54240247  .00009373  00000-0  53383-3 0  9995
2 60012  97.5816 302.7512 0014952 102.3758 257.9147 15.12944315 63609
1 60012U 24110A   25213.54240247  .00009373  00000-0  53383-3 0  9995
2 60012  97.5816 302.7512 0014952 102.3758 257.9147 15.12944315 63609
1 60012U 24110A   25213.80695467  .00008477  00000-0  48314-3 0  9994
2 60012  97.5817 303.0142 0014943 101.5385 258.7524 15.12947830 63647
1 60012U 24110A   25213.87309258  .00008483  00000-0  48347-3 0  9994
2 60012  97.5817 303.0799 0014938 101.3383 258.9527 15.12948919 63650
1 60012U 24110A   25214.20378100  .00009462  00000-0  53865-3 0  9993
2 60012  97.5817 303.4086 0014915 100.2982 259.9932 15.12956755 63705
1 60012U 24110A   25214.53446839  .00008871  00000-0  50520-3 0  9992
2 60012  97.5818 303.7373 0014906  99.2951 260.9966 15.12961778 63756
1 60012U 24110A   25214.60060566  .00008967  00000-0  51060-3 0  9995
2 60012  97.5819 303.8030 0014905  99.0724 261.2194 15.12963236 63762
1 60012U 24110A   25214.86515444  .00008274  00000-0  47146-3 0  9994
2 60012  97.5819 304.0661 0014923  98.3613 261.9311 15.12966966 63800
1 60012U 24110A   25215.19583905  .00008827  00000-0  50255-3 0  9997
2 60012  97.5819 304.3946 0014924  97.2417 263.0511 15.12974047 63859
1 60012U 24110A   25215.52652283  .00007852  00000-0  44746-3 0  9995
2 60012  97.5821 304.7233 0014940  96.2199 264.0734 15.12978044 63904
1 60012U 24110A   25215.59265941  .00007874  00000-0  44871-3 0  9996
2 60012  97.5821 304.7890 0014943  95.9589 264.3346 15.12979321 63917
1 60012U 24110A   25215.85720516  .00007574  00000-0  43171-3 0  9998
2 60012  97.5822 305.0519 0014966  95.1779 265.1160 15.12983461 63955
1 60012U 24110A   25215.92334149  .00007664  00000-0  43676-3 0  9999
2 60012  97.5822 305.1177 0014964  94.9598 265.3341 15.12984574 63960
1 60012U 24110A   25216.18788632  .00007918  00000-0  45104-3 0  9998
2 60012  97.5822 305.3806 0014973  94.1636 266.1306 15.12989591 64006
1 60012U 24110A   25216.51856649  .00008057  00000-0  45882-3 0  9997
2 60012  97.5824 305.7093 0014996  93.0867 267.2079 15.12994986 64057
1 60012U 24110A   25216.58470239  .00008142  00000-0  46357-3 0  9994
2 60012  97.5825 305.7751 0014998  92.8610 267.4338 15.12996153 64063
1 60012U 24110A   25216.84924538  .00007886  00000-0  44912-3 0  9998
2 60012  97.5825 306.0380 0015014  92.0715 268.2235 15.13000135 64100
1 60012U 24110A   25216.91538107  .00007817  00000-0  44521-3 0  9999
2 60012  97.5825 306.1038 0015021  91.8860 268.4092 15.13000935 64119
1 60012U 24110A   25217.17992303  .00007933  00000-0  45168-3 0  9997
2 60012  97.5825 306.3667 0015016  91.0986 269.1965 15.13005562 64156
1 60012U 24110A   25217.51059972  .00007502  00000-0  42730-3 0  9995
2 60012  97.5826 306.6955 0015034  90.0925 270.2028 15.13010032 64209
1 60012U 24110A   25217.57673493  .00007444  00000-0  42401-3 0  9991
2 60012  97.5827 306.7612 0015034  89.8823 270.4131 15.13011010 64219
1 60012U 24110A   25217.97354513  .00006909  00000-0  39382-3 0  9993
2 60012  97.5827 307.1557 0015031  88.6728 271.6224 15.13016275 64270
1 60012U 24110A   25218.63489230  .00006480  00000-0  36950-3 0  9994
2 60012  97.5828 307.8132 0015014  86.6434 273.6514 15.13025551 64372
